{
"type": "FeatureCollection",
"name": "creeping_faults",
"crs": { "type": "name", "properties": { "name": "urn:ogc:def:crs:OGC:1.3:CRS84" } },
"features": [
{ "type": "Feature", "properties": { "name": "Almanor", "dip": 90, "rake": -135, "ID": 2, "num_segs": 3, "slip_rate": 2.0, "slip_ub": 5.0, "slip_lb": 0.5, "slip_std": null, "recurrence_int": null }, "geometry": { "type": "LineString", "coordinates": [ [ -121.128972494478205, 40.200802737227576 ], [ -121.153644769818015, 40.242153230081129 ], [ -121.159900431013938, 40.288279942696526 ], [ -121.234462203383629, 40.384745778526344 ] ] } },
{ "type": "Feature", "properties": { "name": "Bartlett Springs", "dip": 90, "rake": 180, "ID": 8, "num_segs": 20, "slip_rate": 4.0, "slip_ub": 9.0, "slip_lb": 1.0, "slip_std": null, "recurrence_int": null }, "geometry": { "type": "LineString", "coordinates": [ [ -123.489177373507232, 40.207127384620371 ], [ -123.448154283662518, 40.170783159522685 ], [ -123.422994788874377, 40.077090533332644 ], [ -123.436784429155892, 40.030177355719957 ], [ -123.394894638252964, 39.9628584164223 ], [ -123.337872399827603, 39.899965534735976 ], [ -123.286684510374556, 39.805417643960958 ], [ -123.244904493683975, 39.75480753492814 ], [ -123.216289916897864, 39.720333606267928 ], [ -123.157187620055424, 39.694897452790215 ], [ -123.119830764245279, 39.649974151871781 ], [ -123.049647890061351, 39.578313172496294 ], [ -123.002298445267371, 39.522359023205645 ], [ -122.955025985394087, 39.466383923793828 ], [ -122.919298610206255, 39.39769887328918 ], [ -122.868872579853161, 39.350081500614323 ], [ -122.811976645643057, 39.282979088374098 ], [ -122.755192195129865, 39.215846758745016 ], [ -122.65296234638069, 39.151788211646647 ], [ -122.597082674360962, 39.089959447792808 ], [ -122.499746539076938, 38.997260961688838 ] ] } },
{ "type": "Feature", "properties": { "name": "Bennett Valley", "dip": 90, "rake": 180, "ID": 11, "num_segs": 3, "slip_rate": 0.01, "slip_ub": 0.2, "slip_lb": 0.0, "slip_std": null, "recurrence_int": null }, "geometry": { "type": "LineString", "coordinates": [ [ -122.646907510021521, 38.499943450655138 ], [ -122.646180517142426, 38.43469034315811 ], [ -122.591532236489371, 38.375797649996905 ], [ -122.536404122138606, 38.292440372299112 ] ] } },
{ "type": "Feature", "properties": { "name": "Calaveras (north)", "dip": 80, "rake": 180, "ID": 923, "num_segs": 1, "slip_rate": 6.0, "slip_ub": 8.0, "slip_lb": 3.0, "slip_std": null, "recurrence_int": null }, "geometry": { "type": "LineString", "coordinates": [ [ -121.958367869530804, 37.745924593072303 ], [ -122.041082129667615, 37.848457376227941 ] ] } },
{ "type": "Feature", "properties": { "name": "Chico Monocline", "dip": 60, "rake": 90, "ID": 313, "num_segs": 6, "slip_rate": 0.115, "slip_ub": 0.23, "slip_lb": 0.0, "slip_std": null, "recurrence_int": null }, "geometry": { "type": "LineString", "coordinates": [ [ -121.686401799344168, 39.652859911328257 ], [ -121.735375035852172, 39.714520042995595 ], [ -121.787143456714745, 39.783816978040242 ], [ -121.837326730071396, 39.861499604252742 ], [ -121.881489634900078, 39.929641775414481 ], [ -121.939829410085935, 40.01572548293948 ], [ -122.087297085983948, 40.185639834961606 ] ] } },
{ "type": "Feature", "properties": { "name": "Clayton", "dip": 90, "rake": 180, "ID": 38, "num_segs": 1, "slip_rate": 0.39, "slip_ub": 1.0, "slip_lb": 0.2, "slip_std": null, "recurrence_int": null }, "geometry": { "type": "LineString", "coordinates": [ [ -121.961662164980453, 37.976598562256122 ], [ -121.884608415864989, 37.914420823515201 ] ] } },
{ "type": "Feature", "properties": { "name": "Cohasset Ridge", "dip": 60, "rake": 90, "ID": 314, "num_segs": 2, "slip_rate": 0.115, "slip_ub": 0.23, "slip_lb": 0.0, "slip_std": null, "recurrence_int": null }, "geometry": { "type": "LineString", "coordinates": [ [ -121.574510966895076, 39.909197311788184 ], [ -121.637126826312226, 39.977297666789049 ], [ -121.704287448827813, 40.128943729699941 ] ] } },
{ "type": "Feature", "properties": { "name": "Collayomi", "dip": 90, "rake": 180, "ID": 42, "num_segs": 4, "slip_rate": 0.39, "slip_ub": 1.0, "slip_lb": 0.2, "slip_std": null, "recurrence_int": null }, "geometry": { "type": "LineString", "coordinates": [ [ -122.847018911402103, 38.94080328314562 ], [ -122.790180565471132, 38.88987408474226 ], [ -122.703741532624349, 38.803735976387259 ], [ -122.610103128873675, 38.753667343416559 ], [ -122.559952923710853, 38.726008284018612 ] ] } },
{ "type": "Feature", "properties": { "name": "Concord", "dip": 90, "rake": 180, "ID": 44, "num_segs": 1, "slip_rate": 4.3, "slip_ub": 9.0, "slip_lb": 3.0, "slip_std": null, "recurrence_int": null }, "geometry": { "type": "LineString", "coordinates": [ [ -122.088780195516506, 38.04375727883663 ], [ -121.98985890038, 37.900076382180302 ] ] } },
{ "type": "Feature", "properties": { "name": "Corning", "dip": 75, "rake": 90, "ID": 315, "num_segs": 4, "slip_rate": 0.104, "slip_ub": 0.21, "slip_lb": 0.0, "slip_std": null, "recurrence_int": null }, "geometry": { "type": "LineString", "coordinates": [ [ -122.200799421306186, 39.978227733246072 ], [ -122.197522599274976, 39.714670336588675 ], [ -122.193424549789739, 39.672777216832813 ], [ -122.150310257855608, 39.618645006777967 ], [ -122.126876309172246, 39.573090723193623 ] ] } },
{ "type": "Feature", "properties": { "name": "Eaton Roughs", "dip": 90, "rake": 180, "ID": 74, "num_segs": 4, "slip_rate": 0.39, "slip_ub": 1.0, "slip_lb": 0.2, "slip_std": null, "recurrence_int": null }, "geometry": { "type": "LineString", "coordinates": [ [ -123.487274090499255, 40.306897647231679 ], [ -123.40907713760015, 40.212883789482355 ], [ -123.367303019826295, 40.12658078440041 ], [ -123.317257506849728, 40.05551726448769 ], [ -123.305641893322303, 39.998696388603669 ] ] } },
{ "type": "Feature", "properties": { "name": "Franklin", "dip": 90, "rake": 180, "ID": 84, "num_segs": 2, "slip_rate": 0.01, "slip_ub": 0.2, "slip_lb": 0.0, "slip_std": null, "recurrence_int": null }, "geometry": { "type": "LineString", "coordinates": [ [ -122.282713162946038, 38.124615251682421 ], [ -122.118348461790191, 37.950857611771674 ], [ -122.041082129667615, 37.848457376227941 ] ] } },
{ "type": "Feature", "properties": { "name": "Garberville - Briceland", "dip": 90, "rake": 180, "ID": 85, "num_segs": 5, "slip_rate": 2.6, "slip_ub": 5.0, "slip_lb": 0.2, "slip_std": null, "recurrence_int": null }, "geometry": { "type": "LineString", "coordinates": [ [ -124.066705432701923, 40.293384791725188 ], [ -124.042102889862946, 40.251685490252271 ], [ -123.947972567643802, 40.156207245778717 ], [ -123.853733937903911, 40.08665324522714 ], [ -123.759547594790405, 40.06251050054361 ], [ -123.633796519938272, 39.9883535796071 ] ] } },
{ "type": "Feature", "properties": { "name": "Great Valley 1", "dip": 15, "rake": 90, "ID": 90, "num_segs": 4, "slip_rate": 0.1, "slip_ub": 0.2, "slip_lb": 0.0, "slip_std": null, "recurrence_int": null }, "geometry": { "type": "LineString", "coordinates": [ [ -122.299476449280064, 39.678506472513561 ], [ -122.294763721433867, 39.580327569760236 ], [ -122.290061253626192, 39.482133777695815 ], [ -122.285369033739869, 39.383925426936294 ], [ -122.280707032439778, 39.285802845123236 ] ] } },
{ "type": "Feature", "properties": { "name": "Great Valley 2", "dip": 15, "rake": 90, "ID": 96, "num_segs": 2, "slip_rate": 0.1, "slip_ub": 0.2, "slip_lb": 0.0, "slip_std": null, "recurrence_int": null }, "geometry": { "type": "LineString", "coordinates": [ [ -122.280707032439778, 39.285802845123236 ], [ -122.286397827707901, 39.187442639972815 ], [ -122.277591022566384, 39.11693813971813 ] ] } },
{ "type": "Feature", "properties": { "name": "Great Valley 3 (Mysterious Ridge)", "dip": 20, "rake": 90, "ID": 97, "num_segs": 4, "slip_rate": 1.3, "slip_ub": 2.0, "slip_lb": 0.5, "slip_std": null, "recurrence_int": null }, "geometry": { "type": "LineString", "coordinates": [ [ -122.277591022566384, 39.11693813971813 ], [ -122.219992590032945, 39.010294180930714 ], [ -122.162575285341205, 38.903610982390738 ], [ -122.105338924250532, 38.796889081886064 ], [ -122.048283321000866, 38.690129018906539 ] ] } },
{ "type": "Feature", "properties": { "name": "Great Valley 3a (Dunnigan Hills)", "dip": 20, "rake": 90, "ID": 98, "num_segs": 3, "slip_rate": 0.6, "slip_ub": 1.0, "slip_lb": 0.2, "slip_std": null, "recurrence_int": null }, "geometry": { "type": "LineString", "coordinates": [ [ -122.033577009227315, 38.831753804051409 ], [ -121.970502792325334, 38.77205762671953 ], [ -121.907540799744766, 38.712327902416099 ], [ -121.877867447575682, 38.623872548071724 ] ] } },
{ "type": "Feature", "properties": { "name": "Great Valley 4a (Trout Creek)", "dip": 20, "rake": 90, "ID": 99, "num_segs": 2, "slip_rate": 1.3, "slip_ub": 2.0, "slip_lb": 0.5, "slip_std": null, "recurrence_int": null }, "geometry": { "type": "LineString", "coordinates": [ [ -122.092043617141002, 38.688039158467802 ], [ -122.045424885604547, 38.609830864987671 ], [ -121.998914454197603, 38.531599405834115 ] ] } },
{ "type": "Feature", "properties": { "name": "Great Valley 4b (Gordon Valley)", "dip": 20, "rake": 90, "ID": 100, "num_segs": 3, "slip_rate": 1.3, "slip_ub": 2.0, "slip_lb": 0.5, "slip_std": null, "recurrence_int": null }, "geometry": { "type": "LineString", "coordinates": [ [ -122.047273470773746, 38.528479711919921 ], [ -122.029293245312829, 38.439748607022828 ], [ -121.987691117545609, 38.363259112739286 ], [ -121.931365863197271, 38.280831520234166 ] ] } },
{ "type": "Feature", "properties": { "name": "Great Valley 5 (Pittsburg - Kirby Hills)", "dip": 55, "rake": 90, "ID": 101, "num_segs": 3, "slip_rate": 1.5, "slip_ub": 2.0, "slip_lb": 0.5, "slip_std": null, "recurrence_int": null }, "geometry": { "type": "LineString", "coordinates": [ [ -121.931365863197271, 38.280831520234166 ], [ -121.909397554391376, 38.182125420127591 ], [ -121.88749252544298, 38.083405775078127 ], [ -121.904436077307651, 38.036619298814259 ] ] } },
{ "type": "Feature", "properties": { "name": "Great Valley 6 (Midland)", "dip": 47, "rake": 90, "ID": 103, "num_segs": 8, "slip_rate": 0.4, "slip_ub": 1.0, "slip_lb": 0.2, "slip_std": null, "recurrence_int": null }, "geometry": { "type": "LineString", "coordinates": [ [ -121.820062938831001, 38.428699781488575 ], [ -121.780516888091825, 38.371250383455468 ], [ -121.741038894770384, 38.313785850372348 ], [ -121.70876499247413, 38.25455624190613 ], [ -121.657269682478784, 38.167244512096033 ], [ -121.634239626382424, 38.082985821683799 ], [ -121.617067869039118, 37.998341234320769 ], [ -121.629267277737114, 37.907223502813373 ], [ -121.647929324257746, 37.845878321136865 ] ] } },
{ "type": "Feature", "properties": { "name": "Great Valley 7 (Orestimba)", "dip": 20, "rake": 90, "ID": 105, "num_segs": 1, "slip_rate": 0.9, "slip_ub": 1.2, "slip_lb": 0.8, "slip_std": null, "recurrence_int": null }, "geometry": { "type": "LineString", "coordinates": [ [ -121.52395988594435, 37.734660163666135 ], [ -121.428836236225152, 37.643186462716592 ] ] } },
{ "type": "Feature", "properties": { "name": "Greenville (north)", "dip": 84, "rake": 180, "ID": 109, "num_segs": 4, "slip_rate": 3.0, "slip_ub": 5.0, "slip_lb": 1.0, "slip_std": null, "recurrence_int": null }, "geometry": { "type": "LineString", "coordinates": [ [ -121.66301239107608, 37.671583774379911 ], [ -121.718086698417011, 37.729941709197483 ], [ -121.773257839407989, 37.788274058403594 ], [ -121.801549798778495, 37.827476307041209 ], [ -121.875088984982028, 37.871667631209618 ] ] } },
{ "type": "Feature", "properties": { "name": "Hayward (north)", "dip": 82, "rake": 180, "ID": 902, "num_segs": 5, "slip_rate": 9.0, "slip_ub": 11.0, "slip_lb": 7.0, "slip_std": null, "recurrence_int": null }, "geometry": { "type": "LineString", "coordinates": [ [ -122.177607414255334, 37.782537001257445 ], [ -122.215770718074737, 37.832314481887735 ], [ -122.296993275710037, 37.929475572790594 ], [ -122.345450273339793, 37.97824842588787 ], [ -122.404915140248164, 38.061692468167621 ], [ -122.422507530346422, 38.089704664953572 ] ] } },
{ "type": "Feature", "properties": { "name": "Hayward (south)", "dip": 76, "rake": 180, "ID": 901, "num_segs": 1, "slip_rate": 9.0, "slip_ub": 11.0, "slip_lb": 7.0, "slip_std": null, "recurrence_int": null }, "geometry": { "type": "LineString", "coordinates": [ [ -122.091904280627148, 37.681208622052196 ], [ -122.177607414255334, 37.782537001257445 ] ] } },
{ "type": "Feature", "properties": { "name": "Hunting Creek - Bartlett Springs (connector)", "dip": 90, "rake": 180, "ID": 124, "num_segs": 5, "slip_rate": 4.0, "slip_ub": 9.0, "slip_lb": 1.0, "slip_std": null, "recurrence_int": null }, "geometry": { "type": "LineString", "coordinates": [ [ -122.499746539076938, 38.997260961688838 ], [ -122.455203185982754, 38.941151916359821 ], [ -122.406039087505974, 38.883983011820469 ], [ -122.38406392843342, 38.835944155332911 ], [ -122.386778667164435, 38.782885746854873 ], [ -122.343938958371353, 38.657881049790518 ] ] } },
{ "type": "Feature", "properties": { "name": "Hunting Creek - Berryessa", "dip": 90, "rake": 180, "ID": 125, "num_segs": 5, "slip_rate": 4.0, "slip_ub": 9.0, "slip_lb": 1.0, "slip_std": null, "recurrence_int": null }, "geometry": { "type": "LineString", "coordinates": [ [ -122.447962842986783, 38.751216997115336 ], [ -122.343938958371353, 38.657881049790518 ], [ -122.298479100415392, 38.623402982752573 ], [ -122.239976692518724, 38.55528769653219 ], [ -122.249937172256267, 38.466435901006378 ], [ -122.222975156306916, 38.415431701462694 ] ] } },
{ "type": "Feature", "properties": { "name": "Inks Creek - Hooker Dome", "dip": 60, "rake": 90, "ID": 321, "num_segs": 2, "slip_rate": 0.231, "slip_ub": 0.35, "slip_lb": 0.12, "slip_std": null, "recurrence_int": null }, "geometry": { "type": "LineString", "coordinates": [ [ -122.16853889679814, 40.323771255080551 ], [ -122.27189276814542, 40.26708135297401 ], [ -122.35624641110789, 40.228270571051112 ] ] } },
{ "type": "Feature", "properties": { "name": "Keddie Ridge", "dip": 90, "rake": -135, "ID": 131, "num_segs": 2, "slip_rate": 0.01, "slip_ub": 0.2, "slip_lb": 0.0, "slip_std": null, "recurrence_int": null }, "geometry": { "type": "LineString", "coordinates": [ [ -121.107314263701454, 40.271138788147994 ], [ -121.035222208152192, 40.224531698758305 ], [ -120.908738290471689, 40.167037737371395 ] ] } },
{ "type": "Feature", "properties": { "name": "King Range", "dip": 29, "rake": 90, "ID": 136, "num_segs": 5, "slip_rate": 0.01, "slip_ub": 0.2, "slip_lb": 0.0, "slip_std": null, "recurrence_int": null }, "geometry": { "type": "LineString", "coordinates": [ [ -123.98747527865504, 40.010322737600482 ], [ -124.030690668955828, 40.078549036926901 ], [ -124.073989351757319, 40.146753945814289 ], [ -124.16905940882404, 40.182194225268553 ], [ -124.264220126618341, 40.217567425935016 ], [ -124.337553060420447, 40.221677589573986 ] ] } },
{ "type": "Feature", "properties": { "name": "Maacama", "dip": 63, "rake": 180, "ID": 155, "num_segs": 18, "slip_rate": 9.0, "slip_ub": 12.0, "slip_lb": 6.0, "slip_std": null, "recurrence_int": null }, "geometry": { "type": "LineString", "coordinates": [ [ -122.646907510021521, 38.499943450655138 ], [ -122.694743524332807, 38.558054439732331 ], [ -122.742661226057265, 38.616144640215019 ], [ -122.801538908335374, 38.681061212864364 ], [ -122.879461172445076, 38.748404122976716 ], [ -122.957536720846178, 38.815696816243324 ], [ -123.020268415707989, 38.916631034473106 ], [ -123.083184123549586, 39.017523221172048 ], [ -123.141781503793936, 39.108719800103493 ], [ -123.200533704487498, 39.199879949471466 ], [ -123.231318417672469, 39.251138476428544 ], [ -123.262531699087162, 39.29358701806693 ], [ -123.343917556443728, 39.395452238579487 ], [ -123.37501332812613, 39.436039687687469 ], [ -123.43382529702356, 39.531867826227668 ], [ -123.492799032783125, 39.627656942964485 ], [ -123.551934642201985, 39.72340663526635 ], [ -123.596021124787029, 39.783719827520486 ], [ -123.64018377978087, 39.844013136420919 ] ] } },
{ "type": "Feature", "properties": { "name": "Midway", "dip": 60, "rake": 90, "ID": 328, "num_segs": 1, "slip_rate": 0.693, "slip_ub": 1.15, "slip_lb": 0.23, "slip_std": null, "recurrence_int": null }, "geometry": { "type": "LineString", "coordinates": [ [ -121.634417246389859, 37.776279693362049 ], [ -121.532189214847392, 37.693821558368931 ] ] } },
{ "type": "Feature", "properties": { "name": "Mount Diablo (north)", "dip": 40, "rake": 90, "ID": 177, "num_segs": 1, "slip_rate": 2.0, "slip_ub": 3.0, "slip_lb": 1.0, "slip_std": null, "recurrence_int": null }, "geometry": { "type": "LineString", "coordinates": [ [ -121.922188071789719, 37.823658034217942 ], [ -122.041082129667615, 37.848457376227941 ] ] } },
{ "type": "Feature", "properties": { "name": "Mount Diablo (south)", "dip": 40, "rake": 90, "ID": 178, "num_segs": 1, "slip_rate": 2.0, "slip_ub": 3.0, "slip_lb": 1.0, "slip_std": null, "recurrence_int": null }, "geometry": { "type": "LineString", "coordinates": [ [ -121.748837518395675, 37.68864438842526 ], [ -121.958367869530804, 37.745924593072303 ] ] } },
{ "type": "Feature", "properties": { "name": "Noyo Basin", "dip": 75, "rake": -45, "ID": 330, "num_segs": 3, "slip_rate": 0.205, "slip_ub": 0.21, "slip_lb": 0.2, "slip_std": null, "recurrence_int": null }, "geometry": { "type": "LineString", "coordinates": [ [ -123.927271157130491, 39.839189140054017 ], [ -123.892859140606078, 39.71948113356995 ], [ -123.858558381063119, 39.599741975092101 ], [ -123.824368712745127, 39.479972300365738 ] ] } },
{ "type": "Feature", "properties": { "name": "Point Reyes", "dip": 53, "rake": 90, "ID": 216, "num_segs": 10, "slip_rate": 0.1, "slip_ub": 0.2, "slip_lb": 0.0, "slip_std": null, "recurrence_int": null }, "geometry": { "type": "LineString", "coordinates": [ [ -122.842324356584157, 37.915842256003863 ], [ -122.917032018697853, 37.946941196649178 ], [ -122.937234371879185, 37.962455836447845 ], [ -123.026571077019383, 37.971103378303667 ], [ -123.09938440990328, 38.032456707272374 ], [ -123.172327822355442, 38.093766980989926 ], [ -123.233748318945402, 38.184425238789679 ], [ -123.255209903835805, 38.248022046325879 ], [ -123.276710055781876, 38.311611206177112 ], [ -123.331052770145391, 38.421506147674457 ], [ -123.342636629630448, 38.48813895162683 ] ] } },
{ "type": "Feature", "properties": { "name": "Point Reyes (connector)", "dip": 53, "rake": 90, "ID": 217, "num_segs": 3, "slip_rate": 0.1, "slip_ub": 0.2, "slip_lb": 0.0, "slip_std": null, "recurrence_int": null }, "geometry": { "type": "LineString", "coordinates": [ [ -122.651568262070072, 37.747297025205789 ], [ -122.711732576975521, 37.812654328617896 ], [ -122.776979082792337, 37.864265361823499 ], [ -122.842324356584157, 37.915842256003863 ] ] } },
{ "type": "Feature", "properties": { "name": "Red Bluff", "dip": 60, "rake": 90, "ID": 334, "num_segs": 3, "slip_rate": 0.693, "slip_ub": 0.92, "slip_lb": 0.46, "slip_std": null, "recurrence_int": null }, "geometry": { "type": "LineString", "coordinates": [ [ -122.034758759625817, 40.286880892147948 ], [ -122.189285834163485, 40.199443734411716 ], [ -122.280654498949673, 40.170676668443619 ], [ -122.398461856841323, 40.089100028886861 ] ] } },
{ "type": "Feature", "properties": { "name": "Rodgers Creek - Healdsburg", "dip": 77, "rake": 180, "ID": 903, "num_segs": 6, "slip_rate": 9.0, "slip_ub": 11.0, "slip_lb": 6.0, "slip_std": null, "recurrence_int": null }, "geometry": { "type": "LineString", "coordinates": [ [ -122.463142974930776, 38.183881519359943 ], [ -122.48605995634523, 38.206906585005399 ], [ -122.590011830725814, 38.308827767171998 ], [ -122.672798412293389, 38.409083533145704 ], [ -122.759679788045958, 38.522781776245282 ], [ -122.866739561716628, 38.637683875093622 ], [ -122.995782359331912, 38.762528764287147 ] ] } },
{ "type": "Feature", "properties": { "name": "Russ", "dip": 71, "rake": 135, "ID": 236, "num_segs": 1, "slip_rate": 0.27, "slip_ub": 0.3, "slip_lb": 0.2, "slip_std": null, "recurrence_int": null }, "geometry": { "type": "LineString", "coordinates": [ [ -123.776972530939446, 40.271930143915895 ], [ -123.863346196804343, 40.341794176967909 ] ] } },
{ "type": "Feature", "properties": { "name": "San Andreas (North Coast)", "dip": 90, "rake": 180, "ID": 713, "num_segs": 19, "slip_rate": 24.0, "slip_ub": 27.0, "slip_lb": 16.0, "slip_std": null, "recurrence_int": null }, "geometry": { "type": "LineString", "coordinates": [ [ -123.794128927968927, 39.147848674056405 ], [ -123.728677517402986, 39.048799733128249 ], [ -123.689730338686417, 39.000730028215322 ], [ -123.639352385459944, 38.940202168332917 ], [ -123.589061908408354, 38.879651010307498 ], [ -123.521493638805936, 38.80781201893523 ], [ -123.482721221596819, 38.765762919252971 ], [ -123.431987923407036, 38.716274279142347 ], [ -123.363204568937618, 38.64568707256997 ], [ -123.30956429144581, 38.591050005217426 ], [ -123.261427428665627, 38.544213119838275 ], [ -123.216155967351369, 38.499886657975715 ], [ -123.118161425190408, 38.408066002627827 ], [ -123.079219053821362, 38.367311163957197 ], [ -123.000063250946226, 38.268806524085257 ], [ -122.967670183439765, 38.226474450348881 ], [ -122.894059580130374, 38.146221801686188 ], [ -122.848350103812066, 38.097773898503512 ], [ -122.774626554085813, 38.024564666361059 ], [ -122.701390935707479, 37.935544357331814 ] ] } },
{ "type": "Feature", "properties": { "name": "San Andreas (Offshore)", "dip": 90, "rake": 180, "ID": 714, "num_segs": 10, "slip_rate": 24.0, "slip_ub": 27.0, "slip_lb": 16.0, "slip_std": null, "recurrence_int": null }, "geometry": { "type": "LineString", "coordinates": [ [ -124.441969210961503, 40.261321560625824 ], [ -124.337553060420447, 40.221677589573986 ], [ -124.186993856070615, 40.129923614720532 ], [ -124.106027857914341, 40.089587424205732 ], [ -124.080137508694804, 40.049841340469193 ], [ -124.031795141359311, 39.951966854979851 ], [ -123.983374236023423, 39.761481771527293 ], [ -123.945697369779566, 39.531409657768869 ], [ -123.904367299322473, 39.397790076756408 ], [ -123.853927534079219, 39.283525271327292 ], [ -123.794128927968927, 39.147848674056405 ] ] } },
{ "type": "Feature", "properties": { "name": "San Andreas (Peninsula)", "dip": 90, "rake": 180, "ID": 712, "num_segs": 3, "slip_rate": 17.0, "slip_ub": 21.0, "slip_lb": 13.0, "slip_std": null, "recurrence_int": null }, "geometry": { "type": "LineString", "coordinates": [ [ -122.619259434245492, 37.830965908438678 ], [ -122.544687827107509, 37.723346895535741 ], [ -122.501730071309538, 37.678130948712386 ], [ -122.444755844029686, 37.62383202130048 ] ] } },
{ "type": "Feature", "properties": { "name": "San Gregorio (north)", "dip": 90, "rake": 180, "ID": 245, "num_segs": 6, "slip_rate": 7.0, "slip_ub": 10.0, "slip_lb": 4.0, "slip_std": null, "recurrence_int": null }, "geometry": { "type": "LineString", "coordinates": [ [ -122.701390935707479, 37.935544357331814 ], [ -122.682512303556365, 37.895939256392403 ], [ -122.658553571261876, 37.850807520383107 ], [ -122.625078599700231, 37.7847368630296 ], [ -122.597559239937539, 37.721658989384352 ], [ -122.5700905614286, 37.658572084382115 ], [ -122.542460302801317, 37.595529489035009 ] ] } },
{ "type": "Feature", "properties": { "name": "Skinner Flat", "dip": 90, "rake": -135, "ID": 282, "num_segs": 1, "slip_rate": 0.01, "slip_ub": 0.2, "slip_lb": 0.0, "slip_std": null, "recurrence_int": null }, "geometry": { "type": "LineString", "coordinates": [ [ -121.080764253956005, 40.152104112035019 ], [ -120.968115503515662, 40.088379581870456 ] ] } },
{ "type": "Feature", "properties": { "name": "Southampton", "dip": 90, "rake": 180, "ID": 346, "num_segs": 1, "slip_rate": 0.205, "slip_ub": 0.21, "slip_lb": 0.2, "slip_std": null, "recurrence_int": null }, "geometry": { "type": "LineString", "coordinates": [ [ -122.244271389915525, 38.164485527892801 ], [ -122.118348461790191, 37.950857611771674 ] ] } },
{ "type": "Feature", "properties": { "name": "Swain Ravine - Spenceville", "dip": 60, "rake": 90, "ID": 285, "num_segs": 9, "slip_rate": 0.01, "slip_ub": 0.2, "slip_lb": 0.0, "slip_std": null, "recurrence_int": null }, "geometry": { "type": "LineString", "coordinates": [ [ -121.023189809900089, 38.809189785408591 ], [ -121.116750202287051, 38.900807480256461 ], [ -121.210571311596226, 38.99235014065443 ], [ -121.265841037122158, 39.069518677541041 ], [ -121.319829163785954, 39.187305877185949 ], [ -121.350477467537956, 39.239124207952983 ], [ -121.390800918756185, 39.316765624315934 ], [ -121.431218767452663, 39.394386546630528 ], [ -121.44727201716475, 39.463040233737935 ], [ -121.463358131313043, 39.53168504268892 ] ] } },
{ "type": "Feature", "properties": { "name": "Walker Spring", "dip": 90, "rake": -90, "ID": 294, "num_segs": 2, "slip_rate": 0.01, "slip_ub": 0.2, "slip_lb": 0.0, "slip_std": null, "recurrence_int": null }, "geometry": { "type": "LineString", "coordinates": [ [ -121.067632132225214, 40.332685948602702 ], [ -121.035191341076455, 40.288459848721317 ], [ -121.035222208152192, 40.224531698758305 ] ] } },
{ "type": "Feature", "properties": { "name": "West Napa", "dip": 75, "rake": 180, "ID": 295, "num_segs": 5, "slip_rate": 1.0, "slip_ub": 5.0, "slip_lb": 1.0, "slip_std": null, "recurrence_int": null }, "geometry": { "type": "LineString", "coordinates": [ [ -122.244271389915525, 38.164485527892801 ], [ -122.282262958199112, 38.217124055178999 ], [ -122.320004547776534, 38.307577351214043 ], [ -122.380727951530815, 38.371957664077648 ], [ -122.431452509874987, 38.439477040595122 ], [ -122.482278325895408, 38.506972313147372 ] ] } },
{ "type": "Feature", "properties": { "name": "Green Valley", "dip": 84, "rake": 180, "ID": 108, "num_segs": 5, "slip_rate": 4.0, "slip_ub": 9.0, "slip_lb": 2.0, "slip_std": null, "recurrence_int": null }, "geometry": { "type": "LineString", "coordinates": [ [ -122.088780195516506, 38.04375727883663 ], [ -122.110222694042619, 38.108879088149266 ], [ -122.132618351460337, 38.15401785229691 ], [ -122.161080892878914, 38.23309066488077 ], [ -122.191986674379336, 38.324269192775304 ], [ -122.222975156306916, 38.415431701462694 ] ] } }
]
}
