{
"type": "FeatureCollection",
"name": "FaultInfo_xy",
"features": [
{ "type": "Feature", "properties": { "ID": 2, "name": "Almanor", "dip": 90, "rake": -135, "num_segs": 3, "slip_rate": 2.0, "slip_ub": 5.0, "slip_lb": 0.5, "slip_std": null, "recurrence_int": null }, "geometry": { "type": "LineString", "coordinates": [ [ -10.981121181576, 133.319508983681004 ], [ -13.073840367564953, 137.913232156144744 ], [ -13.596902978874764, 143.034789654155389 ], [ -19.908753834108662, 153.757242464108742 ] ] } },
{ "type": "Feature", "properties": { "ID": 8, "name": "Bartlett Springs", "dip": 90, "rake": 180, "num_segs": 20, "slip_rate": 4.0, "slip_ub": 9.0, "slip_lb": 1.0, "slip_std": null, "recurrence_int": null }, "geometry": { "type": "LineString", "coordinates": [ [ -211.85016788293936, 136.910346498670862 ], [ -208.472136782364259, 132.782440947293338 ], [ -206.61440654433892, 122.327551980419585 ], [ -207.932093107132516, 117.152687724029605 ], [ -204.560471570353172, 109.586881447413148 ], [ -199.875483951486558, 102.480352167667135 ], [ -195.769956569171171, 91.875917249660688 ], [ -192.335727937849356, 86.16989520266867 ], [ -189.979985880957798, 82.283673044580453 ], [ -184.984088769861131, 79.338857646950373 ], [ -181.899903434198762, 74.277567684324794 ], [ -176.061656501117085, 66.185847285821012 ], [ -172.134298833851119, 59.884780809630236 ], [ -168.206800047346007, 53.583506500129758 ], [ -165.296262653152723, 45.894358005195592 ], [ -161.064341131519427, 40.518638039785621 ], [ -156.311813013708445, 32.97130304689653 ], [ -151.559240181567674, 25.423753556393788 ], [ -142.863922013175483, 18.148026160557905 ], [ -138.15627629850519, 11.198804588355101 ], [ -129.907822544029386, 0.765957350884775 ] ] } },
{ "type": "Feature", "properties": { "ID": 11, "name": "Bennett Valley", "dip": 90, "rake": 180, "num_segs": 3, "slip_rate": 0.01, "slip_ub": 0.2, "slip_lb": 0.0, "slip_std": null, "recurrence_int": null }, "geometry": { "type": "LineString", "coordinates": [ [ -143.644627941098435, -54.211636306534231 ], [ -143.71067932253743, -61.454742566067637 ], [ -139.053954929372992, -68.075567633909301 ], [ -134.392401585571491, -77.409276308990329 ] ] } },
{ "type": "Feature", "properties": { "ID": 38, "name": "Clayton", "dip": 90, "rake": 180, "num_segs": 1, "slip_rate": 0.39, "slip_ub": 1.0, "slip_lb": 0.2, "slip_std": null, "recurrence_int": null }, "geometry": { "type": "LineString", "coordinates": [ [ -84.488021288728405, -113.151179317276686 ], [ -77.784448522601096, -120.119778532490244 ] ] } },
{ "type": "Feature", "properties": { "ID": 42, "name": "Collayomi", "dip": 90, "rake": 180, "num_segs": 4, "slip_rate": 0.39, "slip_ub": 1.0, "slip_lb": 0.2, "slip_std": null, "recurrence_int": null }, "geometry": { "type": "LineString", "coordinates": [ [ -160.106108828109114, -4.947530393184413 ], [ -155.291739117538867, -10.698696563183196 ], [ -147.97405704988924, -20.403283601585755 ], [ -139.941352775403629, -26.108568978372052 ], [ -135.635973036428851, -29.254420244347912 ] ] } },
{ "type": "Feature", "properties": { "ID": 44, "name": "Concord", "dip": 90, "rake": 180, "num_segs": 1, "slip_rate": 4.3, "slip_ub": 9.0, "slip_lb": 3.0, "slip_std": null, "recurrence_int": null }, "geometry": { "type": "LineString", "coordinates": [ [ -95.567641863499716, -105.57265949363422 ], [ -87.055249413396297, -121.616283389676397 ] ] } },
{ "type": "Feature", "properties": { "ID": 74, "name": "Eaton Roughs", "dip": 90, "rake": 180, "num_segs": 4, "slip_rate": 0.39, "slip_ub": 1.0, "slip_lb": 0.2, "slip_std": null, "recurrence_int": null }, "geometry": { "type": "LineString", "coordinates": [ [ -211.377597823235703, 147.977455072841082 ], [ -205.019695799091494, 137.365769700379076 ], [ -201.721963507236183, 127.694928414126267 ], [ -197.665312880125725, 119.698626144354037 ], [ -196.838263283419707, 113.367437250338611 ] ] } },
{ "type": "Feature", "properties": { "ID": 84, "name": "Franklin", "dip": 90, "rake": 180, "num_segs": 2, "slip_rate": 0.01, "slip_ub": 0.2, "slip_lb": 0.0, "slip_std": null, "recurrence_int": null }, "geometry": { "type": "LineString", "coordinates": [ [ -112.463544899054725, -96.377904566080204 ], [ -98.28656856303985, -115.85039057840001 ], [ -91.623611608229112, -127.293970702988602 ] ] } },
{ "type": "Feature", "properties": { "ID": 85, "name": "Garberville - Briceland", "dip": 90, "rake": 180, "num_segs": 5, "slip_rate": 2.6, "slip_ub": 5.0, "slip_lb": 0.2, "slip_std": null, "recurrence_int": null }, "geometry": { "type": "LineString", "coordinates": [ [ -260.629116141746408, 147.980088563090533 ], [ -258.699045391225127, 143.283452985957751 ], [ -251.053381225671899, 132.426393080582358 ], [ -243.282415821515656, 124.452978750291081 ], [ -235.342381015140489, 121.526464752799413 ], [ -224.869034205605317, 112.979624472275248 ] ] } },
{ "type": "Feature", "properties": { "ID": 90, "name": "Great Valley 1", "dip": 15, "rake": 90, "num_segs": 4, "slip_rate": 0.1, "slip_ub": 0.2, "slip_lb": 0.0, "slip_std": null, "recurrence_int": null }, "geometry": { "type": "LineString", "coordinates": [ [ -111.476399296105384, 76.122951260871005 ], [ -111.229284407688482, 65.218407475497401 ], [ -110.981604729558981, 54.31222123884092 ], [ -110.733365148149701, 43.404461187756262 ], [ -110.486137059188707, 32.506320753640885 ] ] } },
{ "type": "Feature", "properties": { "ID": 96, "name": "Great Valley 2", "dip": 15, "rake": 90, "num_segs": 2, "slip_rate": 0.1, "slip_ub": 0.2, "slip_lb": 0.0, "slip_std": null, "recurrence_int": null }, "geometry": { "type": "LineString", "coordinates": [ [ -110.486137059188707, 32.506320753640885 ], [ -111.132062741386719, 21.594482132525606 ], [ -110.481557122737598, 13.757274337274927 ] ] } },
{ "type": "Feature", "properties": { "ID": 97, "name": "Great Valley 3 (Mysterious Ridge)", "dip": 20, "rake": 90, "num_segs": 4, "slip_rate": 1.3, "slip_ub": 2.0, "slip_lb": 0.5, "slip_std": null, "recurrence_int": null }, "geometry": { "type": "LineString", "coordinates": [ [ -110.481557122737598, 13.757274337274927 ], [ -105.660270818226266, 1.850767568746274 ], [ -100.839294376527448, -10.056729106693544 ], [ -96.018729992365721, -21.965129076133898 ], [ -91.198679625330499, -33.874345564034776 ] ] } },
{ "type": "Feature", "properties": { "ID": 98, "name": "Great Valley 3a (Dunnigan Hills)", "dip": 20, "rake": 90, "num_segs": 3, "slip_rate": 0.6, "slip_ub": 1.0, "slip_lb": 0.2, "slip_std": null, "recurrence_int": null }, "geometry": { "type": "LineString", "coordinates": [ [ -89.741845692434097, -18.168224034330574 ], [ -84.336211051563481, -24.855058935417283 ], [ -78.931043154440815, -31.541726009682467 ], [ -76.444482546800003, -41.385766298827981 ] ] } },
{ "type": "Feature", "properties": { "ID": 99, "name": "Great Valley 4a (Trout Creek)", "dip": 20, "rake": 90, "num_segs": 2, "slip_rate": 1.3, "slip_ub": 2.0, "slip_lb": 0.5, "slip_std": null, "recurrence_int": null }, "geometry": { "type": "LineString", "coordinates": [ [ -95.008055253012955, -34.061570529637152 ], [ -91.051603090255782, -42.790257323335716 ], [ -87.095575571506444, -51.519238159016773 ] ] } },
{ "type": "Feature", "properties": { "ID": 100, "name": "Great Valley 4b (Gordon Valley)", "dip": 20, "rake": 90, "num_segs": 3, "slip_rate": 1.3, "slip_ub": 2.0, "slip_lb": 0.5, "slip_std": null, "recurrence_int": null }, "geometry": { "type": "LineString", "coordinates": [ [ -91.315493193144761, -51.818128722050211 ], [ -89.858009925899808, -61.684639750256494 ], [ -86.31739605576881, -70.214559839410327 ], [ -81.487625316473299, -79.415000853758883 ] ] } },
{ "type": "Feature", "properties": { "ID": 101, "name": "Great Valley 5 (Pittsburg - Kirby Hills)", "dip": 55, "rake": 90, "num_segs": 3, "slip_rate": 1.5, "slip_ub": 2.0, "slip_lb": 0.5, "slip_std": null, "recurrence_int": null }, "geometry": { "type": "LineString", "coordinates": [ [ -81.487625316473299, -79.415000853758883 ], [ -79.673336339701635, -90.389369164505524 ], [ -77.859170774802266, -101.364321180279589 ], [ -79.396031088401287, -106.541930183814529 ] ] } },
{ "type": "Feature", "properties": { "ID": 103, "name": "Great Valley 6 (Midland)", "dip": 47, "rake": 90, "num_segs": 8, "slip_rate": 0.4, "slip_ub": 1.0, "slip_lb": 0.2, "slip_std": null, "recurrence_int": null }, "geometry": { "type": "LineString", "coordinates": [ [ -71.604377998323628, -63.0965205687382 ], [ -68.205564669036377, -69.503408050461815 ], [ -64.807151072411614, -75.910340312654583 ], [ -62.035189327129714, -82.506700608458516 ], [ -57.596997463152846, -92.230988586057691 ], [ -55.642857406559031, -101.596606406607606 ], [ -54.198762579162462, -111.000746131315339 ], [ -55.338539239920003, -121.105151360581345 ], [ -57.026907151768476, -127.901118335544382 ] ] } },
{ "type": "Feature", "properties": { "ID": 105, "name": "Great Valley 7 (Orestimba)", "dip": 20, "rake": 90, "num_segs": 1, "slip_rate": 0.9, "slip_ub": 1.2, "slip_lb": 0.8, "slip_std": null, "recurrence_int": null }, "geometry": { "type": "LineString", "coordinates": [ [ -46.185363759584412, -140.312770740114019 ], [ -37.847153963871669, -150.506597910474767 ] ] } },
{ "type": "Feature", "properties": { "ID": 108, "name": "Green Valley", "dip": 84, "rake": 180, "num_segs": 5, "slip_rate": 4.0, "slip_ub": 9.0, "slip_lb": 2.0, "slip_std": null, "recurrence_int": null }, "geometry": { "type": "LineString", "coordinates": [ [ -95.567641863499716, -105.57265949363422 ], [ -97.363149112918578, -98.323010830217001 ], [ -99.265774074671867, -93.289419252340949 ], [ -101.650001895090796, -84.482474351635474 ], [ -104.224919397297867, -74.328189219090461 ], [ -106.800016862604721, -64.174410494261465 ] ] } },
{ "type": "Feature", "properties": { "ID": 109, "name": "Greenville (north)", "dip": 84, "rake": 180, "num_segs": 4, "slip_rate": 3.0, "slip_ub": 5.0, "slip_lb": 1.0, "slip_std": null, "recurrence_int": null }, "geometry": { "type": "LineString", "coordinates": [ [ -58.491444991430704, -147.231800439087209 ], [ -63.300254175940012, -140.719614402480403 ], [ -68.109871829010942, -134.207108210296667 ], [ -70.564402301484307, -129.835492912338907 ], [ -76.991974261014121, -124.872135394046865 ] ] } },
{ "type": "Feature", "properties": { "ID": 124, "name": "Hunting Creek - Bartlett Springs (connector)", "dip": 90, "rake": 180, "num_segs": 5, "slip_rate": 4.0, "slip_ub": 9.0, "slip_lb": 1.0, "slip_std": null, "recurrence_int": null }, "geometry": { "type": "LineString", "coordinates": [ [ -129.907822544029386, 0.765957350884775 ], [ -126.149809950406166, -5.52480004837079 ], [ -121.986522368904872, -11.937546064481289 ], [ -120.161172942758853, -17.299057804579167 ], [ -120.486154493385882, -23.184870021381339 ], [ -116.968432637272031, -37.115807626906999 ] ] } },
{ "type": "Feature", "properties": { "ID": 125, "name": "Hunting Creek - Berryessa", "dip": 90, "rake": 180, "num_segs": 5, "slip_rate": 4.0, "slip_ub": 9.0, "slip_lb": 1.0, "slip_std": null, "recurrence_int": null }, "geometry": { "type": "LineString", "coordinates": [ [ -125.856477206984607, -26.6172233493653 ], [ -116.968432637272031, -37.115807626906999 ], [ -113.066724762173308, -41.000126012662818 ], [ -108.075426683931752, -48.631571981809707 ], [ -109.077404228010764, -58.48151778750276 ], [ -106.800016862604721, -64.174410494261465 ] ] } },
{ "type": "Feature", "properties": { "ID": 131, "name": "Keddie Ridge", "dip": 90, "rake": -135, "num_segs": 2, "slip_rate": 0.01, "slip_ub": 0.2, "slip_lb": 0.0, "slip_std": null, "recurrence_int": null }, "geometry": { "type": "LineString", "coordinates": [ [ -9.127625261771424, 141.125349654781871 ], [ -2.997885453526432, 135.94655438947197 ], [ 7.774163652164991, 129.567224116810223 ] ] } },
{ "type": "Feature", "properties": { "ID": 136, "name": "King Range", "dip": 29, "rake": 90, "num_segs": 5, "slip_rate": 0.01, "slip_ub": 0.2, "slip_lb": 0.0, "slip_std": null, "recurrence_int": null }, "geometry": { "type": "LineString", "coordinates": [ [ -254.958054351985538, 116.349404752202418 ], [ -258.385049379364659, 124.041290292431754 ], [ -261.811351416823925, 131.732458035093686 ], [ -269.760008858789604, 135.942025714449414 ], [ -277.707385237288975, 140.152549064319771 ], [ -283.922133838213995, 140.834713188350122 ] ] } },
{ "type": "Feature", "properties": { "ID": 155, "name": "Maacama", "dip": 63, "rake": 180, "num_segs": 18, "slip_rate": 9.0, "slip_ub": 12.0, "slip_lb": 6.0, "slip_std": null, "recurrence_int": null }, "geometry": { "type": "LineString", "coordinates": [ [ -143.644627941098435, -54.211636306534231 ], [ -147.696888109115889, -47.685693439809363 ], [ -151.749336763659812, -41.159743583883305 ], [ -156.733199584156381, -33.855176719156006 ], [ -163.356678774935261, -26.24406912449718 ], [ -169.980333414439656, -18.63259424125421 ], [ -175.177471384004917, -7.31137658758897 ], [ -180.374482443695968, 4.009162034355014 ], [ -185.207420779237992, 14.248415901076097 ], [ -190.040102463265953, 24.48702498796283 ], [ -192.557253328849157, 30.240681971297739 ], [ -195.131721619575444, 35.018308581167574 ], [ -201.853753682126893, 46.501182013949581 ], [ -204.411572949076003, 51.075073876263154 ], [ -209.1830825736142, 61.843824540968498 ], [ -213.953889948237105, 72.611519387593773 ], [ -218.723909279662593, 83.378095223870957 ], [ -222.30599212508713, 90.178145309100984 ], [ -225.887686028783378, 96.977786630707683 ] ] } },
{ "type": "Feature", "properties": { "ID": 177, "name": "Mount Diablo (north)", "dip": 40, "rake": 90, "num_segs": 1, "slip_rate": 2.0, "slip_ub": 3.0, "slip_lb": 1.0, "slip_std": null, "recurrence_int": null }, "geometry": { "type": "LineString", "coordinates": [ [ -81.188113378448847, -130.158647367103157 ], [ -91.623611608229112, -127.293970702988602 ] ] } },
{ "type": "Feature", "properties": { "ID": 178, "name": "Mount Diablo (south)", "dip": 40, "rake": 90, "num_segs": 1, "slip_rate": 2.0, "slip_ub": 3.0, "slip_lb": 1.0, "slip_std": null, "recurrence_int": null }, "geometry": { "type": "LineString", "coordinates": [ [ -66.047467959502114, -145.28009291877575 ], [ -84.461456495769824, -138.751166626662268 ] ] } },
{ "type": "Feature", "properties": { "ID": 216, "name": "Point Reyes", "dip": 53, "rake": 90, "num_segs": 10, "slip_rate": 0.1, "slip_ub": 0.2, "slip_lb": 0.0, "slip_std": null, "recurrence_int": null }, "geometry": { "type": "LineString", "coordinates": [ [ -161.972714597047428, -118.700984885068706 ], [ -168.467446306512329, -115.114896798975764 ], [ -170.206338485290644, -113.355927981666539 ], [ -178.03142100617211, -112.225611026345675 ], [ -184.271561151614691, -105.273471236805889 ], [ -190.512048924070797, -98.320781221405952 ], [ -195.653679935691883, -88.131563802985724 ], [ -197.360682742420948, -81.028728803286654 ], [ -199.067533743709902, -73.9261201228625 ], [ -203.508515510213471, -61.611858009531716 ], [ -204.331239032390215, -54.192074025227193 ] ] } },
{ "type": "Feature", "properties": { "ID": 217, "name": "Point Reyes (connector)", "dip": 53, "rake": 90, "num_segs": 3, "slip_rate": 0.1, "slip_ub": 0.2, "slip_lb": 0.0, "slip_std": null, "recurrence_int": null }, "geometry": { "type": "LineString", "coordinates": [ [ -145.537508971176379, -137.723281801558983 ], [ -150.704936553376797, -130.374089697400478 ], [ -156.338615044089607, -124.537785043683243 ], [ -161.972714597047428, -118.700984885068706 ] ] } },
{ "type": "Feature", "properties": { "ID": 236, "name": "Russ", "dip": 71, "rake": 135, "num_segs": 1, "slip_rate": 0.27, "slip_ub": 0.3, "slip_lb": 0.2, "slip_std": null, "recurrence_int": null }, "geometry": { "type": "LineString", "coordinates": [ [ -236.100595144346215, 144.809233150773821 ], [ -243.187450402908553, 152.788481609533164 ] ] } },
{ "type": "Feature", "properties": { "ID": 245, "name": "San Gregorio (north)", "dip": 90, "rake": 180, "num_segs": 6, "slip_rate": 7.0, "slip_ub": 10.0, "slip_lb": 4.0, "slip_std": null, "recurrence_int": null }, "geometry": { "type": "LineString", "coordinates": [ [ -149.546073705201991, -116.756048302054211 ], [ -147.966504421162, -121.181329230930601 ], [ -145.949085553692527, -126.227566589125487 ], [ -143.131675785030211, -133.611370635857952 ], [ -140.82799713712501, -140.652689079284585 ], [ -138.524488759254808, -147.694025974329776 ], [ -136.202334592933198, -154.729774530129902 ] ] } },
{ "type": "Feature", "properties": { "ID": 282, "name": "Skinner Flat", "dip": 90, "rake": -135, "num_segs": 1, "slip_rate": 0.01, "slip_ub": 0.2, "slip_lb": 0.0, "slip_std": null, "recurrence_int": null }, "geometry": { "type": "LineString", "coordinates": [ [ -6.881441942095878, 127.90852413248885 ], [ 2.719226515736121, 120.831523723582066 ] ] } },
{ "type": "Feature", "properties": { "ID": 285, "name": "Swain Ravine - Spenceville", "dip": 60, "rake": 90, "num_segs": 9, "slip_rate": 0.01, "slip_ub": 0.2, "slip_lb": 0.0, "slip_std": null, "recurrence_int": null }, "geometry": { "type": "LineString", "coordinates": [ [ -2.014234089195258, -21.182244893566683 ], [ -10.127749074092016, -11.005312283538176 ], [ -18.242958458585555, -0.828155573684308 ], [ -23.006218569593866, 7.751281894214917 ], [ -27.632311361863415, 20.842684978200801 ], [ -30.25795694188821, 26.605197652192814 ], [ -33.701950634123087, 35.238999301561407 ], [ -37.146320525343597, 43.87212194946671 ], [ -38.491372030794757, 51.500671650688176 ], [ -39.836480880522323, 59.128496635066568 ] ] } },
{ "type": "Feature", "properties": { "ID": 294, "name": "Walker Spring", "dip": 90, "rake": -90, "num_segs": 2, "slip_rate": 0.01, "slip_ub": 0.2, "slip_lb": 0.0, "slip_std": null, "recurrence_int": null }, "geometry": { "type": "LineString", "coordinates": [ [ -5.7472417425605, 147.954564129493292 ], [ -2.992440793629163, 143.043399606639667 ], [ -2.997885453526432, 135.94655438947197 ] ] } },
{ "type": "Feature", "properties": { "ID": 295, "name": "West Napa", "dip": 75, "rake": 180, "num_segs": 5, "slip_rate": 1.0, "slip_ub": 5.0, "slip_lb": 1.0, "slip_std": null, "recurrence_int": null }, "geometry": { "type": "LineString", "coordinates": [ [ -109.034294007730026, -92.000008647178504 ], [ -112.28206959819245, -86.112086329010879 ], [ -115.443123672485441, -76.026280490557809 ], [ -120.645962140205469, -68.802395287550269 ], [ -124.960980501427102, -61.240329468673607 ], [ -129.276351336852997, -53.678286619715252 ] ] } },
{ "type": "Feature", "properties": { "ID": 313, "name": "Chico Monocline", "dip": 60, "rake": 90, "num_segs": 6, "slip_rate": 0.115, "slip_ub": 0.23, "slip_lb": 0.0, "slip_std": null, "recurrence_int": null }, "geometry": { "type": "LineString", "coordinates": [ [ -58.908821141676583, 72.702128419392892 ], [ -63.05550518494595, 79.580267638104374 ], [ -67.426585807130095, 87.310459148862194 ], [ -71.644259358525517, 95.97274559127915 ], [ -75.348026840839239, 103.573132805111484 ], [ -80.233646978760916, 113.179342040955319 ], [ -92.591011936011, 132.181335955035195 ] ] } },
{ "type": "Feature", "properties": { "ID": 314, "name": "Cohasset Ridge", "dip": 60, "rake": 90, "num_segs": 2, "slip_rate": 0.115, "slip_ub": 0.23, "slip_lb": 0.0, "slip_std": null, "recurrence_int": null }, "geometry": { "type": "LineString", "coordinates": [ [ -49.123805329067487, 101.093638511224981 ], [ -54.423608867457247, 108.689474354846226 ], [ -60.027033445848446, 125.566492506432823 ] ] } },
{ "type": "Feature", "properties": { "ID": 315, "name": "Corning", "dip": 75, "rake": 90, "num_segs": 4, "slip_rate": 0.104, "slip_ub": 0.21, "slip_lb": 0.0, "slip_std": null, "recurrence_int": null }, "geometry": { "type": "LineString", "coordinates": [ [ -102.565944770802659, 109.278705832551637 ], [ -102.677953979929015, 80.017594177554656 ], [ -102.388503540567783, 75.362386110195203 ], [ -98.767051657195609, 69.305461536062651 ], [ -96.818643877517701, 64.223214801995098 ] ] } },
{ "type": "Feature", "properties": { "ID": 321, "name": "Inks Creek - Hooker Dome", "dip": 60, "rake": 90, "num_segs": 2, "slip_rate": 0.231, "slip_ub": 0.35, "slip_lb": 0.12, "slip_std": null, "recurrence_int": null }, "geometry": { "type": "LineString", "coordinates": [ [ -99.306274707211273, 147.600114352814728 ], [ -108.178607211313079, 141.425208220826363 ], [ -115.417762107191393, 137.220747462198148 ] ] } },
{ "type": "Feature", "properties": { "ID": 328, "name": "Midway", "dip": 60, "rake": 90, "num_segs": 1, "slip_rate": 0.693, "slip_ub": 1.15, "slip_lb": 0.23, "slip_std": null, "recurrence_int": null }, "geometry": { "type": "LineString", "coordinates": [ [ -55.890140618219334, -135.63260122575474 ], [ -46.936486099498303, -144.840067450671114 ] ] } },
{ "type": "Feature", "properties": { "ID": 330, "name": "Noyo Basin", "dip": 75, "rake": -45, "num_segs": 3, "slip_rate": 0.205, "slip_ub": 0.21, "slip_lb": 0.2, "slip_std": null, "recurrence_int": null }, "geometry": { "type": "LineString", "coordinates": [ [ -250.44738038626312, 97.193494335269676 ], [ -247.934914070067805, 83.816212997539836 ], [ -245.420736117876743, 70.436473423126586 ], [ -242.904912964683035, 57.054401132986484 ] ] } },
{ "type": "Feature", "properties": { "ID": 334, "name": "Red Bluff", "dip": 60, "rake": 90, "num_segs": 3, "slip_rate": 0.693, "slip_ub": 0.92, "slip_lb": 0.46, "slip_std": null, "recurrence_int": null }, "geometry": { "type": "LineString", "coordinates": [ [ -87.986366876108931, 143.367555760034122 ], [ -101.254348062423318, 133.822217648153099 ], [ -109.078181076743377, 130.734500249744997 ], [ -119.252851061019925, 121.826954394207092 ] ] } },
{ "type": "Feature", "properties": { "ID": 346, "name": "Southampton", "dip": 90, "rake": 180, "num_segs": 1, "slip_rate": 0.205, "slip_ub": 0.21, "slip_lb": 0.2, "slip_std": null, "recurrence_int": null }, "geometry": { "type": "LineString", "coordinates": [ [ -109.034294007730026, -92.000008647178504 ], [ -98.28656856303985, -115.85039057840001 ] ] } },
{ "type": "Feature", "properties": { "ID": 712, "name": "San Andreas (Peninsula)", "dip": 90, "rake": 180, "num_segs": 3, "slip_rate": 17.0, "slip_ub": 21.0, "slip_lb": 13.0, "slip_std": null, "recurrence_int": null }, "geometry": { "type": "LineString", "coordinates": [ [ -142.53039649376467, -128.491310716429609 ], [ -136.165336562221398, -140.54584837386264 ], [ -132.459889811406782, -145.625804195706735 ], [ -127.528390848723106, -151.731348481821016 ] ] } },
{ "type": "Feature", "properties": { "ID": 713, "name": "San Andreas (North Coast)", "dip": 90, "rake": 180, "num_segs": 19, "slip_rate": 24.0, "slip_ub": 27.0, "slip_lb": 16.0, "slip_std": null, "recurrence_int": null }, "geometry": { "type": "LineString", "coordinates": [ [ -241.445076901148354, 20.11938035979956 ], [ -236.123784271267937, 8.956651053922444 ], [ -232.913701191818319, 3.522187454854621 ], [ -228.749008016946533, -3.322159127809022 ], [ -224.584119093969633, -10.166602673682517 ], [ -218.946905893205923, -18.303052586613887 ], [ -215.709001087398946, -23.061748343371665 ], [ -211.449645561917293, -28.672478454825072 ], [ -205.674639190102539, -36.663070615894625 ], [ -201.161320066308889, -42.84596644839776 ], [ -197.098738687317308, -48.148713698463048 ], [ -193.273517695511742, -53.164646469650727 ], [ -184.965562425968471, -63.557448207715396 ], [ -181.668403770606744, -68.158357517085733 ], [ -174.991768155080791, -79.244185908943535 ], [ -172.25860042094871, -84.003368313936051 ], [ -165.998813573344876, -93.045290326290953 ], [ -162.101237774484105, -98.503566240544757 ], [ -155.792897816178538, -106.755660198369384 ], [ -149.546073705201991, -116.756048302054211 ] ] } },
{ "type": "Feature", "properties": { "ID": 714, "name": "San Andreas (Offshore)", "dip": 90, "rake": 180, "num_segs": 10, "slip_rate": 24.0, "slip_ub": 27.0, "slip_lb": 16.0, "slip_std": null, "recurrence_int": null }, "geometry": { "type": "LineString", "coordinates": [ [ -292.623447970630195, 145.563200758791737 ], [ -283.922133838213995, 140.834713188350122 ], [ -271.493155973903697, 130.196134723819199 ], [ -264.759029356347696, 125.482466296398769 ], [ -262.706909774607652, 120.997596624801815 ], [ -258.957106986494694, 109.999551877428345 ], [ -255.530514506185568, 88.726944504005772 ], [ -253.143870304829477, 63.092649385312306 ], [ -250.072926600453457, 48.151622796934433 ], [ -246.133975615637127, 35.334877742837421 ], [ -241.445076901148354, 20.11938035979956 ] ] } },
{ "type": "Feature", "properties": { "ID": 901, "name": "Hayward (south)", "dip": 76, "rake": 180, "num_segs": 1, "slip_rate": 9.0, "slip_ub": 11.0, "slip_lb": 7.0, "slip_std": null, "recurrence_int": null }, "geometry": { "type": "LineString", "coordinates": [ [ -96.31248244207292, -145.799236618761086 ], [ -103.729537547373624, -134.462107641308052 ] ] } },
{ "type": "Feature", "properties": { "ID": 902, "name": "Hayward (north)", "dip": 82, "rake": 180, "num_segs": 5, "slip_rate": 9.0, "slip_ub": 11.0, "slip_lb": 7.0, "slip_std": null, "recurrence_int": null }, "geometry": { "type": "LineString", "coordinates": [ [ -103.729537547373624, -134.462107641308052 ], [ -107.018794463142129, -128.894655413129044 ], [ -114.017381839388477, -118.014798664551037 ], [ -118.198241400607458, -112.540888815379134 ], [ -123.28135400414503, -103.202391229386166 ], [ -124.777169686385193, -100.0699017055708 ] ] } },
{ "type": "Feature", "properties": { "ID": 903, "name": "Rodgers Creek - Healdsburg", "dip": 77, "rake": 180, "num_segs": 6, "slip_rate": 9.0, "slip_ub": 11.0, "slip_lb": 6.0, "slip_std": null, "recurrence_int": null }, "geometry": { "type": "LineString", "coordinates": [ [ -128.175964734529117, -89.562384010739279 ], [ -130.14213367247234, -86.974667925205168 ], [ -139.049110823856978, -75.510136570111342 ], [ -146.085317835040115, -64.254239275336957 ], [ -153.429250816173777, -51.49298524230926 ], [ -162.501646618134345, -38.55508713743189 ], [ -173.42878586749589, -24.461303160757925 ] ] } },
{ "type": "Feature", "properties": { "ID": 923, "name": "Calaveras (north)", "dip": 80, "rake": 180, "num_segs": 1, "slip_rate": 6.0, "slip_ub": 8.0, "slip_lb": 3.0, "slip_std": null, "recurrence_int": null }, "geometry": { "type": "LineString", "coordinates": [ [ -84.461456495769824, -138.751166626662268 ], [ -91.623611608229112, -127.293970702988602 ] ] } }
]
}
